IRIDIUM 26              
1 24903U 97043A   25123.55497328  .00000682  00000+0  22313-3 0  9996
2 24903  86.3929 129.3750 0002136  92.9401 267.2041 14.37107310450335
IRIDIUM 22              
1 24907U 97043E   25123.51768383  .00000583  00000+0  19420-3 0  9993
2 24907  86.3939 132.8903 0002305  91.3439 268.8022 14.35925612450361
DUMMY MASS 1            
1 24925U 97048A   25123.59839460  .00000630  00000+0  67373-4 0  9995
2 24925  86.3358 155.9440 0004839 321.3358  38.7519 14.86950559498505
DUMMY MASS 2            
1 24926U 97048B   25123.55312227  .00000614  00000+0  65956-4 0  9996
2 24926  86.3361 157.5629 0006012 333.7276  26.3642 14.86703196498275
IRIDIUM 29              
1 24944U 97051A   25123.55635312  .00000608  00000+0  20085-3 0  9999
2 24944  86.3983 162.6120 0002484  90.3342 269.8139 14.36430027446865
IRIDIUM 33              
1 24946U 97051C   25123.55909900  .00000444  00000+0  14951-3 0  9991
2 24946  86.3897 161.8674 0006530 209.1967 150.8864 14.34865917446340
IRIDIUM 28              
1 24948U 97051E   25123.55872067  .00000529  00000+0  17056-3 0  9999
2 24948  86.3985 160.1542 0001990 101.0484 259.0937 14.37354877447430
IRIDIUM 36              
1 24967U 97056C   25123.59854895  .00000634  00000+0  20508-3 0  9991
2 24967  86.4023 191.7109 0002364 100.5191 259.6273 14.37574351445819
